SL-8 R/B                
1 19257U 88053B   26090.19954715  .00000418  00000+0  14395-3 0  9993
2 19257  74.0459  72.8130 0021403 249.2383 122.4954 14.38931288979691
COSMOS 1975             
1 19573U 88093A   26090.00517600  .00009697  00000+0  34897-3 0  9993
2 19573  82.5156  96.2776 0013389  95.8935 264.3832 15.28368127 22661
SL-14 R/B               
1 19574U 88093B   26090.22445020  .00000717  00000+0  79652-4 0  9997
2 19574  82.5342  21.8320 0019912 330.8750 142.3690 14.85682652  4215
SL-16 R/B               
1 19650U 88102B   26090.23663505  .00000024  00000+0  36200-4 0  9997
2 19650  70.9970 106.1594 0015219 329.6930  30.3311 14.16153535929949
INTERCOSMOS 24          
1 20261U 89080A   26090.01095090  .00000612  00000+0  18090-3 0  9996
2 20261  82.6013  90.5155 1186912 243.2874 104.2023 12.59585250669483
SL-14 R/B               
1 20262U 89080C   26090.24073664  .00000483  00000+0  13659-3 0  9997
2 20262  82.5952 159.3575 1230906 135.5133 235.1746 12.50514645662849
DELTA 1 R/B             
1 20323U 89089B   26090.14113131  .00000472  00000+0  12516-3 0  9996
2 20323  97.0689 294.1650 0070389  55.5283 305.2538 14.50681126898840
ARIANE 40 R/B           
1 20443U 90005H   26090.14720061  .00000360  00000+0  12787-3 0  9991
2 20443  98.3038 150.1646 0011085 136.1755 224.0315 14.39884795895896
DELTA 2 R/B(1)          
1 20453U 90008B   26090.23460398  .00074414  00000+0  79855-3 0  9999
2 20453  35.6038  33.1588 0077115 100.9790 259.9633 15.58885003929499
COSMOS 2058             
1 20465U 90010A   26090.23094015  .00006433  00000+0  37788-3 0  9999
2 20465  82.4704  26.2016 0007573 256.3554 103.6833 15.11525481945491
SL-14 R/B               
1 20466U 90010B   26090.20224385  .00000686  00000+0  80166-4 0  9995
2 20466  82.5000 247.1756 0018722 226.0634 133.9037 14.83589804931672
SL-14 R/B               
1 20511U 90018B   26090.30821247  .00000597  00000+0  71883-4 0  9992
2 20511  82.5239 202.8876 0016742  25.6435 334.5606 14.82166868925786
HST                     
1 20580U 90037B   26090.14666398  .00010310  00000+0  33878-3 0  9990
2 20580  28.4719 253.5904 0001890  15.8116 344.2539 15.29823594776600
SL-16 R/B               
1 20625U 90046B   26089.90473427  .00000183  00000+0  11922-3 0  9994
2 20625  70.9980 253.3538 0016409 271.8844  88.0400 14.15017553851391
COSMOS 2084             
1 20663U 90055A   26089.84094927  .00004180  00000+0  30027-3 0  9991
2 20663  62.7893 263.4301 0013685 196.6588 163.4065 15.05772419939501
SL-6 R/B(2)             
1 20666U 90055D   26090.25161159  .00002783  00000+0  21492-3 0  9996
2 20666  62.7836 180.5202 0028336 351.9211   8.1428 15.03700098941433
SL-8 R/B                
1 20775U 90078B   26090.14073503  .00015419  00000+0  45690-3 0  9991
2 20775  82.9028 232.0063 0358126 301.6339  55.0397 14.89701482812495
