[{"OBJECT_NAME":"SL-8 R/B","OBJECT_ID":"1988-053B","EPOCH":"2026-03-31T04:47:20.873760","MEAN_MOTION":14.38931288,"ECCENTRICITY":0.00214032,"INCLINATION":74.0459,"RA_OF_ASC_NODE":72.813,"ARG_OF_PERICENTER":249.2383,"MEAN_ANOMALY":122.4954,"EPHEMERIS_TYPE":0,"CLASSIFICATION_TYPE":"U","NORAD_CAT_ID":19257,"ELEMENT_SET_NO":999,"REV_AT_EPOCH":97969,"BSTAR":0.00014395278,"MEAN_MOTION_DOT":4.18e-6,"MEAN_MOTION_DDOT":0},{"OBJECT_NAME":"COSMOS 1975","OBJECT_ID":"1988-093A","EPOCH":"2026-03-31T00:07:27.206400","MEAN_MOTION":15.28368127,"ECCENTRICITY":0.00133893,"INCLINATION":82.5156,"RA_OF_ASC_NODE":96.2776,"ARG_OF_PERICENTER":95.8935,"MEAN_ANOMALY":264.3832,"EPHEMERIS_TYPE":0,"CLASSIFICATION_TYPE":"U","NORAD_CAT_ID":19573,"ELEMENT_SET_NO":999,"REV_AT_EPOCH":2266,"BSTAR":0.00034896649,"MEAN_MOTION_DOT":9.697e-5,"MEAN_MOTION_DDOT":0},{"OBJECT_NAME":"SL-14 R/B","OBJECT_ID":"1988-093B","EPOCH":"2026-03-31T05:23:12.497280","MEAN_MOTION":14.85682652,"ECCENTRICITY":0.00199123,"INCLINATION":82.5342,"RA_OF_ASC_NODE":21.832,"ARG_OF_PERICENTER":330.875,"MEAN_ANOMALY":142.369,"EPHEMERIS_TYPE":0,"CLASSIFICATION_TYPE":"U","NORAD_CAT_ID":19574,"ELEMENT_SET_NO":999,"REV_AT_EPOCH":421,"BSTAR":7.9651945e-5,"MEAN_MOTION_DOT":7.17e-6,"MEAN_MOTION_DDOT":0},{"OBJECT_NAME":"SL-16 R/B","OBJECT_ID":"1988-102B","EPOCH":"2026-03-31T05:40:45.268320","MEAN_MOTION":14.16153535,"ECCENTRICITY":0.00152195,"INCLINATION":70.997,"RA_OF_ASC_NODE":106.1594,"ARG_OF_PERICENTER":329.693,"MEAN_ANOMALY":30.3311,"EPHEMERIS_TYPE":0,"CLASSIFICATION_TYPE":"U","NORAD_CAT_ID":19650,"ELEMENT_SET_NO":999,"REV_AT_EPOCH":92994,"BSTAR":3.62002e-5,"MEAN_MOTION_DOT":2.4e-7,"MEAN_MOTION_DDOT":0},{"OBJECT_NAME":"INTERCOSMOS 24","OBJECT_ID":"1989-080A","EPOCH":"2026-03-31T00:15:46.157760","MEAN_MOTION":12.5958525,"ECCENTRICITY":0.11869129,"INCLINATION":82.6013,"RA_OF_ASC_NODE":90.5155,"ARG_OF_PERICENTER":243.2874,"MEAN_ANOMALY":104.2023,"EPHEMERIS_TYPE":0,"CLASSIFICATION_TYPE":"U","NORAD_CAT_ID":20261,"ELEMENT_SET_NO":999,"REV_AT_EPOCH":66948,"BSTAR":0.00018090152,"MEAN_MOTION_DOT":6.12e-6,"MEAN_MOTION_DDOT":0},{"OBJECT_NAME":"SL-14 R/B","OBJECT_ID":"1989-080C","EPOCH":"2026-03-31T05:46:39.645696","MEAN_MOTION":12.50514645,"ECCENTRICITY":0.12309062,"INCLINATION":82.5952,"RA_OF_ASC_NODE":159.3575,"ARG_OF_PERICENTER":135.5133,"MEAN_ANOMALY":235.1746,"EPHEMERIS_TYPE":0,"CLASSIFICATION_TYPE":"U","NORAD_CAT_ID":20262,"ELEMENT_SET_NO":999,"REV_AT_EPOCH":66284,"BSTAR":0.00013658879,"MEAN_MOTION_DOT":4.83e-6,"MEAN_MOTION_DDOT":0},{"OBJECT_NAME":"DELTA 1 R/B","OBJECT_ID":"1989-089B","EPOCH":"2026-03-31T03:23:13.745184","MEAN_MOTION":14.50681126,"ECCENTRICITY":0.00703894,"INCLINATION":97.0689,"RA_OF_ASC_NODE":294.165,"ARG_OF_PERICENTER":55.5283,"MEAN_ANOMALY":305.2538,"EPHEMERIS_TYPE":0,"CLASSIFICATION_TYPE":"U","NORAD_CAT_ID":20323,"ELEMENT_SET_NO":999,"REV_AT_EPOCH":89884,"BSTAR":0.00012516414,"MEAN_MOTION_DOT":4.72e-6,"MEAN_MOTION_DDOT":0},{"OBJECT_NAME":"ARIANE 40 R/B","OBJECT_ID":"1990-005H","EPOCH":"2026-03-31T03:31:58.132704","MEAN_MOTION":14.39884795,"ECCENTRICITY":0.00110854,"INCLINATION":98.3038,"RA_OF_ASC_NODE":150.1646,"ARG_OF_PERICENTER":136.1755,"MEAN_ANOMALY":224.0315,"EPHEMERIS_TYPE":0,"CLASSIFICATION_TYPE":"U","NORAD_CAT_ID":20443,"ELEMENT_SET_NO":999,"REV_AT_EPOCH":89589,"BSTAR":0.00012786505,"MEAN_MOTION_DOT":3.6e-6,"MEAN_MOTION_DDOT":0},{"OBJECT_NAME":"DELTA 2 R/B(1)","OBJECT_ID":"1990-008B","EPOCH":"2026-03-31T05:37:49.783872","MEAN_MOTION":15.58885003,"ECCENTRICITY":0.00771156,"INCLINATION":35.6038,"RA_OF_ASC_NODE":33.1588,"ARG_OF_PERICENTER":100.979,"MEAN_ANOMALY":259.9633,"EPHEMERIS_TYPE":0,"CLASSIFICATION_TYPE":"U","NORAD_CAT_ID":20453,"ELEMENT_SET_NO":999,"REV_AT_EPOCH":92949,"BSTAR":0.00079854998,"MEAN_MOTION_DOT":0.00074414,"MEAN_MOTION_DDOT":0},{"OBJECT_NAME":"COSMOS 2058","OBJECT_ID":"1990-010A","EPOCH":"2026-03-31T05:32:33.228960","MEAN_MOTION":15.11525481,"ECCENTRICITY":0.00075736,"INCLINATION":82.4704,"RA_OF_ASC_NODE":26.2016,"ARG_OF_PERICENTER":256.3554,"MEAN_ANOMALY":103.6833,"EPHEMERIS_TYPE":0,"CLASSIFICATION_TYPE":"U","NORAD_CAT_ID":20465,"ELEMENT_SET_NO":999,"REV_AT_EPOCH":94549,"BSTAR":0.0003778849,"MEAN_MOTION_DOT":6.433e-5,"MEAN_MOTION_DDOT":0},{"OBJECT_NAME":"SL-14 R/B","OBJECT_ID":"1990-010B","EPOCH":"2026-03-31T04:51:13.868640","MEAN_MOTION":14.83589804,"ECCENTRICITY":0.00187221,"INCLINATION":82.5,"RA_OF_ASC_NODE":247.1756,"ARG_OF_PERICENTER":226.0634,"MEAN_ANOMALY":133.9037,"EPHEMERIS_TYPE":0,"CLASSIFICATION_TYPE":"U","NORAD_CAT_ID":20466,"ELEMENT_SET_NO":999,"REV_AT_EPOCH":93167,"BSTAR":8.0165936e-5,"MEAN_MOTION_DOT":6.86e-6,"MEAN_MOTION_DDOT":0},{"OBJECT_NAME":"SL-14 R/B","OBJECT_ID":"1990-018B","EPOCH":"2026-03-31T07:23:49.557408","MEAN_MOTION":14.82166868,"ECCENTRICITY":0.00167428,"INCLINATION":82.5239,"RA_OF_ASC_NODE":202.8876,"ARG_OF_PERICENTER":25.6435,"MEAN_ANOMALY":334.5606,"EPHEMERIS_TYPE":0,"CLASSIFICATION_TYPE":"U","NORAD_CAT_ID":20511,"ELEMENT_SET_NO":999,"REV_AT_EPOCH":92578,"BSTAR":7.1882888e-5,"MEAN_MOTION_DOT":5.97e-6,"MEAN_MOTION_DDOT":0},{"OBJECT_NAME":"HST","OBJECT_ID":"1990-037B","EPOCH":"2026-03-31T03:31:11.767872","MEAN_MOTION":15.29823594,"ECCENTRICITY":0.00018902,"INCLINATION":28.4719,"RA_OF_ASC_NODE":253.5904,"ARG_OF_PERICENTER":15.8116,"MEAN_ANOMALY":344.2539,"EPHEMERIS_TYPE":0,"CLASSIFICATION_TYPE":"U","NORAD_CAT_ID":20580,"ELEMENT_SET_NO":999,"REV_AT_EPOCH":77660,"BSTAR":0.0003387767,"MEAN_MOTION_DOT":0.0001031,"MEAN_MOTION_DDOT":0},{"OBJECT_NAME":"SL-16 R/B","OBJECT_ID":"1990-046B","EPOCH":"2026-03-30T21:42:49.040928","MEAN_MOTION":14.15017553,"ECCENTRICITY":0.0016409,"INCLINATION":70.998,"RA_OF_ASC_NODE":253.3538,"ARG_OF_PERICENTER":271.8844,"MEAN_ANOMALY":88.04,"EPHEMERIS_TYPE":0,"CLASSIFICATION_TYPE":"U","NORAD_CAT_ID":20625,"ELEMENT_SET_NO":999,"REV_AT_EPOCH":85139,"BSTAR":0.00011922,"MEAN_MOTION_DOT":1.83e-6,"MEAN_MOTION_DDOT":0},{"OBJECT_NAME":"COSMOS 2084","OBJECT_ID":"1990-055A","EPOCH":"2026-03-30T20:10:58.016928","MEAN_MOTION":15.05772419,"ECCENTRICITY":0.00136858,"INCLINATION":62.7893,"RA_OF_ASC_NODE":263.4301,"ARG_OF_PERICENTER":196.6588,"MEAN_ANOMALY":163.4065,"EPHEMERIS_TYPE":0,"CLASSIFICATION_TYPE":"U","NORAD_CAT_ID":20663,"ELEMENT_SET_NO":999,"REV_AT_EPOCH":93950,"BSTAR":0.00030027153,"MEAN_MOTION_DOT":4.18e-5,"MEAN_MOTION_DDOT":0},{"OBJECT_NAME":"SL-6 R/B(2)","OBJECT_ID":"1990-055D","EPOCH":"2026-03-31T06:02:19.241376","MEAN_MOTION":15.03700098,"ECCENTRICITY":0.0028336,"INCLINATION":62.7836,"RA_OF_ASC_NODE":180.5202,"ARG_OF_PERICENTER":351.9211,"MEAN_ANOMALY":8.1428,"EPHEMERIS_TYPE":0,"CLASSIFICATION_TYPE":"U","NORAD_CAT_ID":20666,"ELEMENT_SET_NO":999,"REV_AT_EPOCH":94143,"BSTAR":0.00021491707,"MEAN_MOTION_DOT":2.783e-5,"MEAN_MOTION_DDOT":0},{"OBJECT_NAME":"SL-8 R/B","OBJECT_ID":"1990-078B","EPOCH":"2026-03-31T03:22:39.506592","MEAN_MOTION":14.89701482,"ECCENTRICITY":0.03581264,"INCLINATION":82.9028,"RA_OF_ASC_NODE":232.0063,"ARG_OF_PERICENTER":301.6339,"MEAN_ANOMALY":55.0397,"EPHEMERIS_TYPE":0,"CLASSIFICATION_TYPE":"U","NORAD_CAT_ID":20775,"ELEMENT_SET_NO":999,"REV_AT_EPOCH":81249,"BSTAR":0.00045690402,"MEAN_MOTION_DOT":0.00015419,"MEAN_MOTION_DDOT":0}]
